satname,norad_id,inclination_deg,eccentricity,mean_motion_rev_per_day,perigee_km,apogee_km,l1,l2
STARLINK-1234,45190,53.0329,0.0003081,15.86090579,311.1940730627384,315.31730923902524,1 45190U 20012N   26196.92149875  .00096451  00000+0  38035-3 0  9999,2 45190  53.0329  48.9362 0003081 254.0073 106.0611 15.86090579356052
STARLINK-1269,45197,53.1541,0.0003194,15.38043304,449.7144417455838,454.07746679677257,1 45197U 20012V   26196.31995290  .00028877  00000+0  76751-3 0  9993,2 45197  53.1541 164.0282 0003194  47.7077 312.4198 15.38043304354493
STARLINK-1154,45198,53.0404,0.0004197,15.66761748,365.34531836847236,371.0081741270724,1 45198U 20012W   26196.90450406  .00029160  00000+0  27577-3 0  9992,2 45198  53.0404 107.8080 0004197  94.2846 265.8649 15.66761748355276
STARLINK-1199,45201,53.1533,0.000549,15.38060576,448.09516121974957,455.59448125947074,1 45201U 20012Z   26196.35654200  .00042263  00000+0  11156-2 0  9998,2 45201  53.1533 148.1312 0005490  46.2483 313.8975 15.38060576354749
STARLINK-1209,45206,53.0344,0.0001361,15.74877157,344.0657518292255,345.89578448571683,1 45206U 20012AE  26196.92342752  .00048814  00000+0  32580-3 0  9995,2 45206  53.0344  66.3584 0001361 226.2169 133.8737 15.74877157354960
STARLINK-1231,45212,53.0371,0.0002907,15.30164629,473.32838273565176,477.3129830324806,1 45212U 20012AL  26196.26388796  .00025349  00000+0  86591-3 0  9996,2 45212  53.0371 145.3823 0002907 102.0029 258.1296 15.30164629354702
STARLINK-1271,45217,53.1557,0.0005413,15.38268367,447.5330034869812,454.92647591938476,1 45217U 20012AR  26196.93427262  .00040557  00000+0  10641-2 0  9997,2 45217  53.1557 145.4876 0005413  52.0955 308.0539 15.38268367354831
STARLINK-1191,45222,53.1527,0.0002641,15.42788318,436.084312911451,439.6845354276984,1 45222U 20012AW  26196.94034995  .00039695  00000+0  89782-3 0  9995,2 45222  53.1527 117.3135 0002641  42.4539 317.6671 15.42788318355237
STARLINK-1212,45223,53.0383,0.0001351,15.73536049,347.8914442468231,349.7090626927111,1 45223U 20012AX  26196.94430648  .00046404  00000+0  32842-3 0  9992,2 45223  53.0383  81.9087 0001351 190.9118 169.1870 15.73536049355707
STARLINK-1215,45225,53.1543,0.0005116,15.38365631,447.44811964323344,454.4356331495628,1 45225U 20012AZ  26196.93031596  .00027055  00000+0  71226-3 0  9992,2 45225  53.1543 119.7359 0005116  59.5059 300.6450 15.38365631355150
STARLINK-1221,45227,53.0645,0.0002926,15.46571636,424.7729278617999,428.7551559515241,1 45227U 20012BB  26196.80861471  .00009309  00000+0  19248-3 0  9991,2 45227  53.0645  20.4794 0002926  70.3051 289.8271 15.46571636356506
STARLINK-1222,45228,53.0518,0.0003259,15.57760746,391.93225110869844,396.34642082448136,1 45228U 20012BC  26196.89881721  .00022485  00000+0  30306-3 0  9999,2 45228  53.0518  84.3641 0003259 100.6253 259.5126 15.57760746355558
STARLINK-1226,45229,53.1525,0.0004932,15.48204568,418.624511666907,425.3321454269844,1 45229U 20012BD  26196.92375539  .00045419  00000+0  85190-3 0  9992,2 45229  53.1525 113.2734 0004932  58.5745 301.5745 15.48204568355188
STARLINK-1227,45230,53.151,0.0004554,15.48257237,418.72740670647,424.92081128454356,1 45230U 20012BE  26196.93127659  .00042308  00000+0  79303-3 0  9996,2 45230  53.1510 113.3124 0004554  54.6387 305.5046 15.48257237355300
STARLINK-1246,45235,53.1533,0.0005219,15.38349017,447.4269232477409,454.5551671012945,1 45235U 20012BK  26196.90819145  .00031143  00000+0  81833-3 0  9992,2 45235  53.1533 160.8557 0005219  18.5815 341.5379 15.38349017354643
STARLINK-1270,45237,53.0382,0.0001725,15.72433584,350.7832083761941,353.1050863720375,1 45237U 20012BM  26196.94442642  .00041548  00000+0  30881-3 0  9999,2 45237  53.0382  83.8632 0001725 187.8919 172.2071 15.72433584355670
STARLINK-1279,45360,53.0303,0.0003913,15.8747143,306.7579973697693,311.9916441206851,1 45360U 20019A   26196.93065193  .00108885  00000+0  40036-3 0  9995,2 45360  53.0303 183.2945 0003913  46.7107 313.4243 15.87471430350836
STARLINK-1301,45361,53.0289,0.000593,15.88964013,301.2230403439071,309.1494617196313,1 45361U 20019B   26196.27948165  .00113333  00000+0  38635-3 0  9998,2 45361  53.0289 188.4913 0005930  45.8965 314.2547 15.88964013350713
STARLINK-1262,45366,53.1537,0.0002257,15.37297872,452.5616500658043,455.6457235118214,1 45366U 20019G   26196.51427937  .00035214  00000+0  95572-3 0  9993,2 45366  53.1537 289.4279 0002257 294.8013  65.2756 15.37297872349350
STARLINK-1273,45367,53.0407,0.0002987,15.62574854,378.20374113085836,382.2411850741164,1 45367U 20019H   26196.43175229  .00060344  00000+0  66449-3 0  9992,2 45367  53.0407 258.5619 0002987 353.2656   6.8316 15.62574854349757
STARLINK-1277,45369,53.0381,0.0003567,15.70980319,353.6919332479547,358.49613366722315,1 45369U 20019K   26196.62820881  .00040526  00000+0  32028-3 0  9992,2 45369  53.0381 249.2857 0003567  23.0692 337.0485 15.70980319349907
STARLINK-1281,45370,53.1557,0.0001847,15.38107291,450.4450561362655,452.9680003355952,1 45370U 20019L   26196.50559573  .00033225  00000+0  87925-3 0  9992,2 45370  53.1557 288.8892 0001847 313.2986  46.7864 15.38107291349361
STARLINK-1300,45374,53.1568,0.0002013,15.38801051,448.2791414246558,451.0280099104202,1 45374U 20019Q   26196.50336383  .00036508  00000+0  94319-3 0  9990,2 45374  53.1568 288.6506 0002013 299.8059  60.2745 15.38801051349367
STARLINK-1302,45375,53.0424,8.76e-05,15.71198183,354.8816379056443,356.0613661151974,1 45375U 20019R   26196.40665858  .00034322  00000+0  26976-3 0  9998,2 45375  53.0424 246.1751 0000876  64.0563 296.0545 15.71198183349927
STARLINK-1304,45376,53.0385,0.0001347,15.66797669,367.1649189094669,368.9823480541281,1 45376U 20019S   26196.63590745  .00029994  00000+0  28314-3 0  9993,2 45376  53.0385 247.4954 0001347 341.6216  18.4750 15.66797669349928
STARLINK-1305,45377,53.0349,0.0007311,15.76556816,335.29294692772237,345.1165062003047,1 45377U 20019T   26196.56586022  .00056631  00000+0  34980-3 0  9993,2 45377  53.0349 223.8894 0007311  21.6241 338.5086 15.76556816350254
STARLINK-1319,45379,53.0324,0.0004167,15.84744564,314.25419698206315,319.83396089325015,1 45379U 20019V   26196.87227161  .00083049  00000+0  35032-3 0  9997,2 45379  53.0324 212.0912 0004167  36.0089 324.1214 15.84744564350449
STARLINK-1266,45383,53.0418,0.000464,15.69344815,357.64511898167893,363.8988265083872,1 45383U 20019Z   26196.59186322  .00034275  00000+0  29079-3 0  9995,2 45383  53.0418 231.9870 0004640  17.5407 342.5769 15.69344815350138
STARLINK-1267,45384,53.0401,0.0002802,15.74041519,345.4755501020718,349.2445186401328,1 45384U 20019AA  26196.49701239  .00048417  00000+0  33502-3 0  9994,2 45384  53.0401 222.9479 0002802  44.1608 315.9633 15.74041519350251
STARLINK-1272,45386,53.0354,0.0002986,15.79267251,330.5117727056295,334.51937442256167,1 45386U 20019AC  26196.72573262  .00070046  00000+0  38242-3 0  9994,2 45386  53.0354 199.2990 0002986  56.1015 304.0289 15.79267251350605
STARLINK-1274,45387,53.0148,0.0006026,15.6939839,356.55783237350533,364.6793806304613,1 45387U 20019AD  26196.72225850  .00096301  00000+0  80003-3 0  9996,2 45387  53.0148 201.0335 0006026 339.5774  20.5001 15.69398390350577
STARLINK-1280,45388,53.0285,0.0006352,15.92976348,289.72093334973124,298.1971641700766,1 45388U 20019AE  26197.00002315  .00184230  23954-4  52345-3 0  9993,2 45388  53.0285 201.9847 0006352  41.0258  69.2080 15.92976348  5981
STARLINK-1283,45389,53.0324,0.0004471,15.76524638,337.29233224730524,343.29995516440704,1 45389U 20019AF  26196.31792138  .00049968  00000+0  31010-3 0  9992,2 45389  53.0324 200.6338 0004471  14.5460 345.5687 15.76524638350559
STARLINK-1284,45390,53.0385,0.000424,15.74503818,343.19244317903394,348.8945482393956,1 45390U 20019AG  26196.31480573  .00042353  00000+0  28795-3 0  9998,2 45390  53.0385 225.0394 0004240  67.9724 292.1745 15.74503818350209
STARLINK-1297,45395,53.0383,0.0003844,15.77751215,334.232431134109,339.3948852001067,1 45395U 20019AM  26196.86696379  .00052986  00000+0  31116-3 0  9990,2 45395  53.0383 220.9370 0003844  37.2465 322.8821 15.77751215349495
STARLINK-1307,45397,53.0501,0.0002432,15.5917579,388.39520148734846,391.6872433747403,1 45397U 20019AP  26196.34175965  .00021009  00000+0  26904-3 0  9999,2 45397  53.0501 233.8058 0002432   7.4915 352.6133 15.59175790349918
STARLINK-1255,45399,53.0306,0.0001555,15.6921045,360.1086903599289,362.20461068524037,1 45399U 20019AR  26196.27924124  .00032612  00000+0  27861-3 0  9997,2 45399  53.0306 199.2751 0001555 350.6084   9.4903 15.69210450350371
STARLINK-1260,45404,53.1536,0.0001733,15.41363855,440.901218442722,443.26510675107784,1 45404U 20019AW  26196.40639007  .00031211  00000+0  74312-3 0  9999,2 45404  53.1536 251.2135 0001733 309.4447  50.6405 15.41363855349597
STARLINK-1263,45405,53.1539,0.0003244,15.38388298,448.6594638950701,453.0901267478748,1 45405U 20019AX  26196.51397972  .00035657  00000+0  93392-3 0  9991,2 45405  53.1539 252.7639 0003244 316.8036  43.2713 15.38388298349584
STARLINK-1265,45406,53.1524,0.0002405,15.41846979,439.01846445200226,442.2983050320636,1 45406U 20019AY  26196.51883345  .00035016  00000+0  81887-3 0  9991,2 45406  53.1524 250.5651 0002405 355.9133   4.1852 15.41846979349612
STARLINK-1278,45408,53.0356,0.0003187,15.78937259,331.31155896018754,335.5895248594006,1 45408U 20019BA  26196.55087534  .00061781  00000+0  34312-3 0  9992,2 45408  53.0356 221.1434 0003187  42.4530 317.6737 15.78937259350007
STARLINK-1296,45412,53.1528,0.0001342,15.41990155,439.3212625529204,441.15131394348555,1 45412U 20019BE  26196.48920570  .00042179  00000+0  97891-3 0  9996,2 45412  53.1528 250.3483 0001342 328.6412  31.4513 15.41990155349613
STARLINK-1309,45414,53.0559,0.0003554,15.7709251,336.2961279216579,341.07044378084083,1 45414U 20019BG  26196.54109382  .00054215  00000+0  32771-3 0  9995,2 45414  53.0559 215.6108 0003554  44.6599 315.4707 15.77092510350062
